CCSDS_OMM_VERS = 2.0
CREATION_DATE  = 
ORIGINATOR     = 

OBJECT_NAME    = ATLAS CENTAUR 2
OBJECT_ID      = 1963-047A
CENTER_NAME    = EARTH
REF_FRAME      = TEME
TIME_SYSTEM    = UTC
MEAN_ELEMENT_THEORY = SGP/SGP4

EPOCH          = 2025-12-29T23:26:10.019040
MEAN_MOTION    = 14.11836125
ECCENTRICITY   = .05486231
INCLINATION    = 30.3533
RA_OF_ASC_NODE = 225.1714
ARG_OF_PERICENTER = 186.0270
MEAN_ANOMALY   = 173.3506

EPHEMERIS_TYPE = 0
CLASSIFICATION_TYPE = U
NORAD_CAT_ID   = 694
ELEMENT_SET_NO = 999
REV_AT_EPOCH   = 12176
BSTAR          = .33258488E-3
MEAN_MOTION_DOT = .2821E-4
MEAN_MOTION_DDOT = 0

CCSDS_OMM_VERS = 2.0
CREATION_DATE  = 
ORIGINATOR     = 

OBJECT_NAME    = THOR AGENA D R/B
OBJECT_ID      = 1964-002A
CENTER_NAME    = EARTH
REF_FRAME      = TEME
TIME_SYSTEM    = UTC
MEAN_ELEMENT_THEORY = SGP/SGP4

EPOCH          = 2025-12-30T14:02:31.797600
MEAN_MOTION    = 14.33971167
ECCENTRICITY   = .00338663
INCLINATION    = 99.1219
RA_OF_ASC_NODE = 9.1688
ARG_OF_PERICENTER = 99.4175
MEAN_ANOMALY   = 261.0838

EPHEMERIS_TYPE = 0
CLASSIFICATION_TYPE = U
NORAD_CAT_ID   = 733
ELEMENT_SET_NO = 999
REV_AT_EPOCH   = 22839
BSTAR          = .15956215E-3
MEAN_MOTION_DOT = .4E-5
MEAN_MOTION_DDOT = 0

CCSDS_OMM_VERS = 2.0
CREATION_DATE  = 
ORIGINATOR     = 

OBJECT_NAME    = SL-3 R/B
OBJECT_ID      = 1964-053B
CENTER_NAME    = EARTH
REF_FRAME      = TEME
TIME_SYSTEM    = UTC
MEAN_ELEMENT_THEORY = SGP/SGP4

EPOCH          = 2025-12-30T15:21:40.837536
MEAN_MOTION    = 14.61290684
ECCENTRICITY   = .00754294
INCLINATION    = 65.0756
RA_OF_ASC_NODE = 173.6617
ARG_OF_PERICENTER = 314.4053
MEAN_ANOMALY   = 45.0887

EPHEMERIS_TYPE = 0
CLASSIFICATION_TYPE = U
NORAD_CAT_ID   = 877
ELEMENT_SET_NO = 999
REV_AT_EPOCH   = 25670
BSTAR          = .11569494E-3
MEAN_MOTION_DOT = .471E-5
MEAN_MOTION_DDOT = 0

CCSDS_OMM_VERS = 2.0
CREATION_DATE  = 
ORIGINATOR     = 

OBJECT_NAME    = SL-8 R/B
OBJECT_ID      = 1967-045B
CENTER_NAME    = EARTH
REF_FRAME      = TEME
TIME_SYSTEM    = UTC
MEAN_ELEMENT_THEORY = SGP/SGP4

EPOCH          = 2025-12-30T15:33:06.358464
MEAN_MOTION    = 14.45557930
ECCENTRICITY   = .00633886
INCLINATION    = 74.0116
RA_OF_ASC_NODE = 117.0236
ARG_OF_PERICENTER = 141.8601
MEAN_ANOMALY   = 218.7069

EPHEMERIS_TYPE = 0
CLASSIFICATION_TYPE = U
NORAD_CAT_ID   = 2802
ELEMENT_SET_NO = 999
REV_AT_EPOCH   = 7904
BSTAR          = .21465301E-3
MEAN_MOTION_DOT = .749E-5
MEAN_MOTION_DDOT = 0

CCSDS_OMM_VERS = 2.0
CREATION_DATE  = 
ORIGINATOR     = 

OBJECT_NAME    = SL-8 R/B
OBJECT_ID      = 1968-040B
CENTER_NAME    = EARTH
REF_FRAME      = TEME
TIME_SYSTEM    = UTC
MEAN_ELEMENT_THEORY = SGP/SGP4

EPOCH          = 2025-12-30T14:48:28.598688
MEAN_MOTION    = 15.02670027
ECCENTRICITY   = .0026338
INCLINATION    = 74.0327
RA_OF_ASC_NODE = 94.7704
ARG_OF_PERICENTER = 293.5375
MEAN_ANOMALY   = 66.3046

EPHEMERIS_TYPE = 0
CLASSIFICATION_TYPE = U
NORAD_CAT_ID   = 3230
ELEMENT_SET_NO = 999
REV_AT_EPOCH   = 7963
BSTAR          = .46092697E-3
MEAN_MOTION_DOT = .6158E-4
MEAN_MOTION_DDOT = 0

CCSDS_OMM_VERS = 2.0
CREATION_DATE  = 
ORIGINATOR     = 

OBJECT_NAME    = OAO 2
OBJECT_ID      = 1968-110A
CENTER_NAME    = EARTH
REF_FRAME      = TEME
TIME_SYSTEM    = UTC
MEAN_ELEMENT_THEORY = SGP/SGP4

EPOCH          = 2025-12-30T02:30:25.378560
MEAN_MOTION    = 14.47255891
ECCENTRICITY   = .00054858
INCLINATION    = 34.9943
RA_OF_ASC_NODE = 293.7211
ARG_OF_PERICENTER = 352.3412
MEAN_ANOMALY   = 7.7194

EPHEMERIS_TYPE = 0
CLASSIFICATION_TYPE = U
NORAD_CAT_ID   = 3597
ELEMENT_SET_NO = 999
REV_AT_EPOCH   = 901
BSTAR          = .12150621E-3
MEAN_MOTION_DOT = .431E-5
MEAN_MOTION_DDOT = 0

CCSDS_OMM_VERS = 2.0
CREATION_DATE  = 
ORIGINATOR     = 

OBJECT_NAME    = ISIS 1
OBJECT_ID      = 1969-009A
CENTER_NAME    = EARTH
REF_FRAME      = TEME
TIME_SYSTEM    = UTC
MEAN_ELEMENT_THEORY = SGP/SGP4

EPOCH          = 2025-12-30T09:48:50.042592
MEAN_MOTION    = 11.30365101
ECCENTRICITY   = .17072465
INCLINATION    = 88.4499
RA_OF_ASC_NODE = 162.8638
ARG_OF_PERICENTER = 228.9917
MEAN_ANOMALY   = 115.0721

EPHEMERIS_TYPE = 0
CLASSIFICATION_TYPE = U
NORAD_CAT_ID   = 3669
ELEMENT_SET_NO = 999
REV_AT_EPOCH   = 34070
BSTAR          = .37890611E-3
MEAN_MOTION_DOT = .528E-5
MEAN_MOTION_DDOT = 0

CCSDS_OMM_VERS = 2.0
CREATION_DATE  = 
ORIGINATOR     = 

OBJECT_NAME    = SERT 2
OBJECT_ID      = 1970-009A
CENTER_NAME    = EARTH
REF_FRAME      = TEME
TIME_SYSTEM    = UTC
MEAN_ELEMENT_THEORY = SGP/SGP4

EPOCH          = 2025-12-30T11:45:27.526752
MEAN_MOTION    = 13.58720451
ECCENTRICITY   = .00048176
INCLINATION    = 99.2675
RA_OF_ASC_NODE = 306.4017
ARG_OF_PERICENTER = 352.0683
MEAN_ANOMALY   = 117.9781

EPHEMERIS_TYPE = 0
CLASSIFICATION_TYPE = U
NORAD_CAT_ID   = 4327
ELEMENT_SET_NO = 999
REV_AT_EPOCH   = 77049
BSTAR          = .10438618E-3
MEAN_MOTION_DOT = .35E-6
MEAN_MOTION_DDOT = 0

CCSDS_OMM_VERS = 2.0
CREATION_DATE  = 
ORIGINATOR     = 

OBJECT_NAME    = SL-3 R/B
OBJECT_ID      = 1971-028B
CENTER_NAME    = EARTH
REF_FRAME      = TEME
TIME_SYSTEM    = UTC
MEAN_ELEMENT_THEORY = SGP/SGP4

EPOCH          = 2025-12-30T13:33:41.419872
MEAN_MOTION    = 15.55634269
ECCENTRICITY   = .00187759
INCLINATION    = 81.2373
RA_OF_ASC_NODE = 137.0438
ARG_OF_PERICENTER = 176.8757
MEAN_ANOMALY   = 183.2614

EPHEMERIS_TYPE = 0
CLASSIFICATION_TYPE = U
NORAD_CAT_ID   = 5118
ELEMENT_SET_NO = 999
REV_AT_EPOCH   = 97790
BSTAR          = .685008E-3
MEAN_MOTION_DOT = .47595E-3
MEAN_MOTION_DDOT = 0

CCSDS_OMM_VERS = 2.0
CREATION_DATE  = 
ORIGINATOR     = 

OBJECT_NAME    = ASTEX 1
OBJECT_ID      = 1971-089A
CENTER_NAME    = EARTH
REF_FRAME      = TEME
TIME_SYSTEM    = UTC
MEAN_ELEMENT_THEORY = SGP/SGP4

EPOCH          = 2025-12-30T08:43:34.564800
MEAN_MOTION    = 14.50666640
ECCENTRICITY   = .0014202
INCLINATION    = 92.7152
RA_OF_ASC_NODE = 129.3225
ARG_OF_PERICENTER = 325.6254
MEAN_ANOMALY   = 34.4032

EPHEMERIS_TYPE = 0
CLASSIFICATION_TYPE = U
NORAD_CAT_ID   = 5560
ELEMENT_SET_NO = 999
REV_AT_EPOCH   = 85225
BSTAR          = .24950972E-3
MEAN_MOTION_DOT = .979E-5
MEAN_MOTION_DDOT = 0

CCSDS_OMM_VERS = 2.0
CREATION_DATE  = 
ORIGINATOR     = 

OBJECT_NAME    = SL-8 R/B
OBJECT_ID      = 1971-119B
CENTER_NAME    = EARTH
REF_FRAME      = TEME
TIME_SYSTEM    = UTC
MEAN_ELEMENT_THEORY = SGP/SGP4

EPOCH          = 2025-12-30T07:30:06.251040
MEAN_MOTION    = 14.36175408
ECCENTRICITY   = .05578463
INCLINATION    = 73.8891
RA_OF_ASC_NODE = 305.2332
ARG_OF_PERICENTER = 285.9702
MEAN_ANOMALY   = 68.0695

EPHEMERIS_TYPE = 0
CLASSIFICATION_TYPE = U
NORAD_CAT_ID   = 5730
ELEMENT_SET_NO = 999
REV_AT_EPOCH   = 64552
BSTAR          = .74045316E-3
MEAN_MOTION_DOT = .14283E-3
MEAN_MOTION_DDOT = 0

CCSDS_OMM_VERS = 2.0
CREATION_DATE  = 
ORIGINATOR     = 

OBJECT_NAME    = OAO 3 (COPERNICUS)
OBJECT_ID      = 1972-065A
CENTER_NAME    = EARTH
REF_FRAME      = TEME
TIME_SYSTEM    = UTC
MEAN_ELEMENT_THEORY = SGP/SGP4

EPOCH          = 2025-12-30T09:42:58.721184
MEAN_MOTION    = 14.59924803
ECCENTRICITY   = .00070596
INCLINATION    = 35.0072
RA_OF_ASC_NODE = 332.0374
ARG_OF_PERICENTER = 309.7514
MEAN_ANOMALY   = 188.2192

EPHEMERIS_TYPE = 0
CLASSIFICATION_TYPE = U
NORAD_CAT_ID   = 6153
ELEMENT_SET_NO = 999
REV_AT_EPOCH   = 83606
BSTAR          = .16206245E-3
MEAN_MOTION_DOT = .767E-5
MEAN_MOTION_DDOT = 0

