ATLAS CENTAUR 2         
1 00694U 63047A   25363.97650485  .00002821  00000+0  33258-3 0  9998
2 00694  30.3533 225.1714 0548623 186.0270 173.3506 14.11836125121766
THOR AGENA D R/B        
1 00733U 64002A   25364.58509025  .00000400  00000+0  15956-3 0  9991
2 00733  99.1219   9.1688 0033866  99.4175 261.0838 14.33971167228393
SL-3 R/B                
1 00877U 64053B   25364.64005599  .00000471  00000+0  11569-3 0  9994
2 00877  65.0756 173.6617 0075429 314.4053  45.0887 14.61290684256704
SL-8 R/B                
1 02802U 67045B   25364.64799026  .00000749  00000+0  21465-3 0  9997
2 02802  74.0116 117.0236 0063388 141.8601 218.7069 14.45557930 79048
SL-8 R/B                
1 03230U 68040B   25364.61699767  .00006158  00000+0  46093-3 0  9991
2 03230  74.0327  94.7704 0026338 293.5375  66.3046 15.02670027 79630
OAO 2                   
1 03597U 68110A   25364.10446040  .00000431  00000+0  12151-3 0  9999
2 03597  34.9943 293.7211 0005485 352.3412   7.7194 14.47255891  9019
ISIS 1                  
1 03669U 69009A   25364.40891253  .00000528  00000+0  37891-3 0  9995
2 03669  88.4499 162.8638 1707246 228.9917 115.0721 11.30365101340709
SERT 2                  
1 04327U 70009A   25364.48990193  .00000035  00000+0  10439-3 0  9992
2 04327  99.2675 306.4017 0004817 352.0683 117.9781 13.58720451770491
SL-3 R/B                
1 05118U 71028B   25364.56506273  .00047595  00000+0  68501-3 0  9999
2 05118  81.2373 137.0438 0018775 176.8757 183.2614 15.55634269977909
ASTEX 1                 
1 05560U 71089A   25364.36359450  .00000979  00000+0  24951-3 0  9994
2 05560  92.7152 129.3225 0014202 325.6254  34.4032 14.50666640852250
SL-8 R/B                
1 05730U 71119B   25364.31257235  .00014283  00000+0  74045-3 0  9992
2 05730  73.8891 305.2332 0557846 285.9702  68.0695 14.36175408645524
OAO 3 (COPERNICUS)      
1 06153U 72065A   25364.40484631  .00000767  00000+0  16206-3 0  9992
2 06153  35.0072 332.0374 0007059 309.7514 188.2192 14.59924803836065
